{
  "type": "FeatureCollection",
  "features": [
    {
      "type": "Feature",
      "properties": {
        "norad_id": 67091,
        "name": "STARLINK-36097",
        "group": "last-30-days",
        "lat": 46.70138282095359,
        "lon": -128.87694886499855,
        "alt_km": 348.0090592303395,
        "timestamp": "2025-12-27T08:36:17.081199+00:00",
        "meta_object_name": "STARLINK-36097",
        "meta_object_id": "2025-298S",
        "meta_epoch": "2025-12-27T04:00:01.998720",
        "meta_mean_motion": 15.73501478,
        "meta_eccentricity": 0.0003625,
        "meta_inclination": 69.9985,
        "meta_ra_of_asc_node": 208.9236,
        "meta_arg_of_pericenter": 277.197,
        "meta_mean_anomaly": 127.4979,
        "meta_ephemeris_type": 0,
        "meta_classification_type": "U",
        "meta_norad_cat_id": 67091,
        "meta_element_set_no": 999,
        "meta_rev_at_epoch": 329,
        "meta_bstar": -0.014346,
        "meta_mean_motion_dot": -0.01764722,
        "meta_mean_motion_ddot": 0,
        "tle_line1": "1 67091U 25298S   25361.16668980 -.01764722  00000+0 -14346-1 0  9999",
        "tle_line2": "2 67091  69.9985 208.9236 0003625 277.1970 127.4979 15.73501478  3294"
      },
      "geometry": {
        "type": "Point",
        "coordinates": [
          -128.87694886499855,
          46.70138282095359
        ]
      }
    },
    {
      "type": "Feature",
      "properties": {
        "norad_id": 67092,
        "name": "STARLINK-35792",
        "group": "last-30-days",
        "lat": 48.321414075488555,
        "lon": -127.46888311028525,
        "alt_km": 347.82771592377594,
        "timestamp": "2025-12-27T08:36:17.081209+00:00",
        "meta_object_name": "STARLINK-35792",
        "meta_object_id": "2025-298T",
        "meta_epoch": "2025-12-27T04:00:01.998720",
        "meta_mean_motion": 15.73502624,
        "meta_eccentricity": 0.0003685,
        "meta_inclination": 69.9985,
        "meta_ra_of_asc_node": 208.9213,
        "meta_arg_of_pericenter": 277.904,
        "meta_mean_anomaly": 128.6657,
        "meta_ephemeris_type": 0,
        "meta_classification_type": "U",
        "meta_norad_cat_id": 67092,
        "meta_element_set_no": 999,
        "meta_rev_at_epoch": 323,
        "meta_bstar": -0.014303,
        "meta_mean_motion_dot": -0.01760192,
        "meta_mean_motion_ddot": 0,
        "tle_line1": "1 67092U 25298T   25361.16668980 -.01760192  00000+0 -14303-1 0  9990",
        "tle_line2": "2 67092  69.9985 208.9213 0003685 277.9040 128.6657 15.73502624  3236"
      },
      "geometry": {
        "type": "Point",
        "coordinates": [
          -127.46888311028525,
          48.321414075488555
        ]
      }
    },
    {
      "type": "Feature",
      "properties": {
        "norad_id": 67093,
        "name": "STARLINK-35784",
        "group": "last-30-days",
        "lat": 49.99764542450906,
        "lon": -125.896533086168,
        "alt_km": 347.6488525426312,
        "timestamp": "2025-12-27T08:36:17.081220+00:00",
        "meta_object_name": "STARLINK-35784",
        "meta_object_id": "2025-298U",
        "meta_epoch": "2025-12-27T04:00:01.998720",
        "meta_mean_motion": 15.73501469,
        "meta_eccentricity": 0.0003697,
        "meta_inclination": 69.9986,
        "meta_ra_of_asc_node": 208.9186,
        "meta_arg_of_pericenter": 278.3316,
        "meta_mean_anomaly": 130.2043,
        "meta_ephemeris_type": 0,
        "meta_classification_type": "U",
        "meta_norad_cat_id": 67093,
        "meta_element_set_no": 999,
        "meta_rev_at_epoch": 329,
        "meta_bstar": -0.014337,
        "meta_mean_motion_dot": -0.0176379,
        "meta_mean_motion_ddot": 0,
        "tle_line1": "1 67093U 25298U   25361.16668980 -.01763790  00000+0 -14337-1 0  9995",
        "tle_line2": "2 67093  69.9986 208.9186 0003697 278.3316 130.2043 15.73501469  3291"
      },
      "geometry": {
        "type": "Point",
        "coordinates": [
          -125.896533086168,
          49.99764542450906
        ]
      }
    },
    {
      "type": "Feature",
      "properties": {
        "norad_id": 67094,
        "name": "STARLINK-36202",
        "group": "last-30-days",
        "lat": 51.75749794530703,
        "lon": -124.09664182659303,
        "alt_km": 347.4379075515553,
        "timestamp": "2025-12-27T08:36:17.081232+00:00",
        "meta_object_name": "STARLINK-36202",
        "meta_object_id": "2025-298V",
        "meta_epoch": "2025-12-27T04:00:01.998720",
        "meta_mean_motion": 15.73492397,
        "meta_eccentricity": 0.0003645,
        "meta_inclination": 69.9985,
        "meta_ra_of_asc_node": 208.9163,
        "meta_arg_of_pericenter": 279.3337,
        "meta_mean_anomaly": 131.3014,
        "meta_ephemeris_type": 0,
        "meta_classification_type": "U",
        "meta_norad_cat_id": 67094,
        "meta_element_set_no": 999,
        "meta_rev_at_epoch": 329,
        "meta_bstar": -0.01436,
        "meta_mean_motion_dot": -0.01765633,
        "meta_mean_motion_ddot": 0,
        "tle_line1": "1 67094U 25298V   25361.16668980 -.01765633  00000+0 -14360-1 0  9990",
        "tle_line2": "2 67094  69.9985 208.9163 0003645 279.3337 131.3014 15.73492397  3292"
      },
      "geometry": {
        "type": "Point",
        "coordinates": [
          -124.09664182659303,
          51.75749794530703
        ]
      }
    },
    {
      "type": "Feature",
      "properties": {
        "norad_id": 67095,
        "name": "STARLINK-36227",
        "group": "last-30-days",
        "lat": 53.41784625453697,
        "lon": -122.23451128423042,
        "alt_km": 347.260816702018,
        "timestamp": "2025-12-27T08:36:17.081242+00:00",
        "meta_object_name": "STARLINK-36227",
        "meta_object_id": "2025-298W",
        "meta_epoch": "2025-12-27T04:00:01.998720",
        "meta_mean_motion": 15.7348779,
        "meta_eccentricity": 0.000364,
        "meta_inclination": 69.9983,
        "meta_ra_of_asc_node": 208.9134,
        "meta_arg_of_pericenter": 279.9745,
        "meta_mean_anomaly": 132.6709,
        "meta_ephemeris_type": 0,
        "meta_classification_type": "U",
        "meta_norad_cat_id": 67095,
        "meta_element_set_no": 999,
        "meta_rev_at_epoch": 323,
        "meta_bstar": -0.01435,
        "meta_mean_motion_dot": -0.01764314,
        "meta_mean_motion_ddot": 0,
        "tle_line1": "1 67095U 25298W   25361.16668980 -.01764314  00000+0 -14350-1 0  9995",
        "tle_line2": "2 67095  69.9983 208.9134 0003640 279.9745 132.6709 15.73487790  3233"
      },
      "geometry": {
        "type": "Point",
        "coordinates": [
          -122.23451128423042,
          53.41784625453697
        ]
      }
    },
    {
      "type": "Feature",
      "properties": {
        "norad_id": 67096,
        "name": "STARLINK-36228",
        "group": "last-30-days",
        "lat": 54.913628290481896,
        "lon": -120.39474170741585,
        "alt_km": 347.16471066342,
        "timestamp": "2025-12-27T08:36:17.081259+00:00",
        "meta_object_name": "STARLINK-36228",
        "meta_object_id": "2025-298X",
        "meta_epoch": "2025-12-27T04:00:01.998720",
        "meta_mean_motion": 15.73489553,
        "meta_eccentricity": 0.0003727,
        "meta_inclination": 69.9987,
        "meta_ra_of_asc_node": 208.9116,
        "meta_arg_of_pericenter": 279.5116,
        "meta_mean_anomaly": 134.9732,
        "meta_ephemeris_type": 0,
        "meta_classification_type": "U",
        "meta_norad_cat_id": 67096,
        "meta_element_set_no": 999,
        "meta_rev_at_epoch": 323,
        "meta_bstar": -0.014316,
        "meta_mean_motion_dot": -0.01760768,
        "meta_mean_motion_ddot": 0,
        "tle_line1": "1 67096U 25298X   25361.16668980 -.01760768  00000+0 -14316-1 0  9997",
        "tle_line2": "2 67096  69.9987 208.9116 0003727 279.5116 134.9732 15.73489553  3232"
      },
      "geometry": {
        "type": "Point",
        "coordinates": [
          -120.39474170741585,
          54.913628290481896
        ]
      }
    },
    {
      "type": "Feature",
      "properties": {
        "norad_id": 67097,
        "name": "STARLINK-36222",
        "group": "last-30-days",
        "lat": 56.485974100055415,
        "lon": -118.26192280189983,
        "alt_km": 347.03123015905476,
        "timestamp": "2025-12-27T08:36:17.081270+00:00",
        "meta_object_name": "STARLINK-36222",
        "meta_object_id": "2025-298Y",
        "meta_epoch": "2025-12-27T04:00:01.998720",
        "meta_mean_motion": 15.73484938,
        "meta_eccentricity": 0.0003719,
        "meta_inclination": 69.9984,
        "meta_ra_of_asc_node": 208.9089,
        "meta_arg_of_pericenter": 279.323,
        "meta_mean_anomaly": 137.1427,
        "meta_ephemeris_type": 0,
        "meta_classification_type": "U",
        "meta_norad_cat_id": 67097,
        "meta_element_set_no": 999,
        "meta_rev_at_epoch": 323,
        "meta_bstar": -0.014319,
        "meta_mean_motion_dot": -0.01760804,
        "meta_mean_motion_ddot": 0,
        "tle_line1": "1 67097U 25298Y   25361.16668980 -.01760804  00000+0 -14319-1 0  9992",
        "tle_line2": "2 67097  69.9984 208.9089 0003719 279.3230 137.1427 15.73484938  3233"
      },
      "geometry": {
        "type": "Point",
        "coordinates": [
          -118.26192280189983,
          56.485974100055415
        ]
      }
    }
  ]
}